[{"OBJECT_NAME":"OBJECT F","OBJECT_ID":"2023-072F","EPOCH":"2026-03-09T23:31:37.259904","MEAN_MOTION":15.29470958,"ECCENTRICITY":0.00062878,"INCLINATION":97.5173,"RA_OF_ASC_NODE":265.798,"ARG_OF_PERICENTER":19.0017,"MEAN_ANOMALY":341.1456,"EPHEMERIS_TYPE":0,"CLASSIFICATION_TYPE":"U","NORAD_CAT_ID":56748,"ELEMENT_SET_NO":999,"REV_AT_EPOCH":15460,"BSTAR":0.00043416252,"MEAN_MOTION_DOT":0.00012341,"MEAN_MOTION_DDOT":0},{"OBJECT_NAME":"STARLINK-31449","OBJECT_ID":"2024-031B","EPOCH":"2026-03-09T20:36:46.108800","MEAN_MOTION":15.30190507,"ECCENTRICITY":0.00012334,"INCLINATION":53.1608,"RA_OF_ASC_NODE":295.5906,"ARG_OF_PERICENTER":92.1734,"MEAN_ANOMALY":267.9408,"EPHEMERIS_TYPE":0,"CLASSIFICATION_TYPE":"U","NORAD_CAT_ID":58966,"ELEMENT_SET_NO":999,"REV_AT_EPOCH":11656,"BSTAR":3.3230852e-5,"MEAN_MOTION_DOT":6.25e-6,"MEAN_MOTION_DDOT":0}]
